start=new Date('2022-09-21T00:00:00.000Z').valueOf();
sats=[{"BSTAR":"0.00000701740000","TLE_LINE2":"2 52121  53.2184 353.1631 0001814  57.5491 302.5676 15.08844157 29770","CLASSIFICATION_TYPE":"U","RA_OF_ASC_NODE":"353.1631","OBJECT_TYPE":"PAYLOAD","NORAD_CAT_ID":"52121","MEAN_ANOMALY":"302.5676","DECAY_DATE":null,"REV_AT_EPOCH":"2977","LAUNCH_DATE":"2022-03-19","EPHEMERIS_TYPE":"0","RCS_SIZE":"LARGE","APOAPSIS":"540.988","MEAN_MOTION_DDOT":"0.0000000000000","EPOCH":"2022-09-20T12:31:32.975616","TIME_SYSTEM":"UTC","INCLINATION":"53.2184","MEAN_MOTION":"15.08844157","FILE":"3578736","ELEMENT_SET_NO":"999","CENTER_NAME":"EARTH","TLE_LINE1":"1 52121U 22029AK  22263.52190944 -.00000176  00000-0  70174-5 0  9994","OBJECT_ID":"2022-029AK","ARG_OF_PERICENTER":"57.5491","OBJECT_NAME":"STARLINK-3678","REF_FRAME":"TEME","SITE":"AFETR","PERIAPSIS":"538.478","GP_ID":"213072905","PERIOD":"95.437","SEMIMAJOR_AXIS":"6917.868","MEAN_ELEMENT_THEORY":"SGP4","COUNTRY_CODE":"US","ECCENTRICITY":"0.00018140","MEAN_MOTION_DOT":"-0.00000176"},{"RCS_SIZE":"LARGE","MEAN_MOTION_DDOT":"0.0000000000000","APOAPSIS":"540.954","EPOCH":"2022-09-20T13:02:00.318336","TIME_SYSTEM":"UTC","ELEMENT_SET_NO":"999","FILE":"3578736","MEAN_MOTION":"15.08844483","INCLINATION":"53.2222","DECAY_DATE":null,"MEAN_ANOMALY":"307.5596","OBJECT_TYPE":"PAYLOAD","RA_OF_ASC_NODE":"3.0709","NORAD_CAT_ID":"52122","CLASSIFICATION_TYPE":"U","TLE_LINE2":"2 52122  53.2222   3.0709 0001767  52.5557 307.5596 15.08844483 29640","BSTAR":"0.00006092500000","EPHEMERIS_TYPE":"0","LAUNCH_DATE":"2022-03-19","REV_AT_EPOCH":"2964","GP_ID":"213072166","PERIAPSIS":"538.509","MEAN_MOTION_DOT":"0.00000682","ECCENTRICITY":"0.00017670","COUNTRY_CODE":"US","MEAN_ELEMENT_THEORY":"SGP4","SEMIMAJOR_AXIS":"6917.867","PERIOD":"95.437","REF_FRAME":"TEME","OBJECT_NAME":"STARLINK-3726","ARG_OF_PERICENTER":"52.5557","OBJECT_ID":"2022-029AL","TLE_LINE1":"1 52122U 22029AL  22263.54305924  .00000682  00000-0  60925-4 0  9996","CENTER_NAME":"EARTH","SITE":"AFETR"},{"INCLINATION":"53.2179","ELEMENT_SET_NO":"999","FILE":"3578736","MEAN_MOTION":"15.08839153","MEAN_MOTION_DDOT":"0.0000000000000","RCS_SIZE":"LARGE","APOAPSIS":"540.828","TIME_SYSTEM":"UTC","EPOCH":"2022-09-20T12:20:56.706144","EPHEMERIS_TYPE":"0","LAUNCH_DATE":"2022-03-19","REV_AT_EPOCH":"2978","TLE_LINE2":"2 52123  53.2179 353.2049 0001561  63.2651 296.8500 15.08839153 29783","BSTAR":"0.00008791900000","DECAY_DATE":null,"MEAN_ANOMALY":"296.8500","OBJECT_TYPE":"PAYLOAD","RA_OF_ASC_NODE":"353.2049","NORAD_CAT_ID":"52123","CLASSIFICATION_TYPE":"U","MEAN_ELEMENT_THEORY":"SGP4","SEMIMAJOR_AXIS":"6917.883","PERIOD":"95.438","MEAN_MOTION_DOT":"0.00001111","ECCENTRICITY":"0.00015610","COUNTRY_CODE":"US","PERIAPSIS":"538.668","GP_ID":"213072416","SITE":"AFETR","ARG_OF_PERICENTER":"63.2651","OBJECT_NAME":"STARLINK-3725","OBJECT_ID":"2022-029AM","TLE_LINE1":"1 52123U 22029AM  22263.51454521  .00001111  00000-0  87919-4 0  9992","CENTER_NAME":"EARTH","REF_FRAME":"TEME"},{"APOAPSIS":"540.739","RCS_SIZE":"LARGE","TIME_SYSTEM":"UTC","MEAN_MOTION_DDOT":"0.0000000000000","EPOCH":"2022-09-20T12:51:25.420896","INCLINATION":"53.2230","MEAN_MOTION":"15.08836794","FILE":"3578736","ELEMENT_SET_NO":"999","BSTAR":"-0.00003430000000","TLE_LINE2":"2 52124  53.2230   3.1042 0001422  52.2259 307.8862 15.08836794 29641","CLASSIFICATION_TYPE":"U","RA_OF_ASC_NODE":"3.1042","OBJECT_TYPE":"PAYLOAD","NORAD_CAT_ID":"52124","MEAN_ANOMALY":"307.8862","DECAY_DATE":null,"REV_AT_EPOCH":"2964","LAUNCH_DATE":"2022-03-19","EPHEMERIS_TYPE":"0","PERIAPSIS":"538.771","GP_ID":"213072667","PERIOD":"95.438","MEAN_ELEMENT_THEORY":"SGP4","SEMIMAJOR_AXIS":"6917.890","COUNTRY_CODE":"US","ECCENTRICITY":"0.00014220","MEAN_MOTION_DOT":"-0.00000834","CENTER_NAME":"EARTH","OBJECT_ID":"2022-029AN","TLE_LINE1":"1 52124U 22029AN  22263.53571089 -.00000834  00000-0 -34300-4 0  9993","OBJECT_NAME":"STARLINK-3684","ARG_OF_PERICENTER":"52.2259","REF_FRAME":"TEME","SITE":"AFETR"},{"ARG_OF_PERICENTER":"61.1024","OBJECT_NAME":"STARLINK-3727","OBJECT_ID":"2022-029AP","TLE_LINE1":"1 52125U 22029AP  22263.51085955 -.00000619  00000-0 -20771-4 0  9992","CENTER_NAME":"EARTH","REF_FRAME":"TEME","SITE":"AFETR","PERIAPSIS":"538.737","GP_ID":"213073405","SEMIMAJOR_AXIS":"6917.875","MEAN_ELEMENT_THEORY":"SGP4","PERIOD":"95.437","MEAN_MOTION_DOT":"-0.00000619","ECCENTRICITY":"0.00014500","COUNTRY_CODE":"US","TLE_LINE2":"2 52125  53.2178 353.2118 0001450  61.1024 299.0113 15.08841840 29780","BSTAR":"-0.00002077100000","DECAY_DATE":null,"MEAN_ANOMALY":"299.0113","NORAD_CAT_ID":"52125","OBJECT_TYPE":"PAYLOAD","RA_OF_ASC_NODE":"353.2118","CLASSIFICATION_TYPE":"U","LAUNCH_DATE":"2022-03-19","EPHEMERIS_TYPE":"0","REV_AT_EPOCH":"2978","APOAPSIS":"540.743","RCS_SIZE":"LARGE","TIME_SYSTEM":"UTC","MEAN_MOTION_DDOT":"0.0000000000000","EPOCH":"2022-09-20T12:15:38.265120","INCLINATION":"53.2178","ELEMENT_SET_NO":"999","FILE":"3578736","MEAN_MOTION":"15.08841840"},{"PERIAPSIS":"538.722","GP_ID":"213124656","SEMIMAJOR_AXIS":"6917.870","MEAN_ELEMENT_THEORY":"SGP4","PERIOD":"95.437","ECCENTRICITY":"0.00014640","COUNTRY_CODE":"US","MEAN_MOTION_DOT":"-0.00000313","CENTER_NAME":"EARTH","ARG_OF_PERICENTER":"59.4138","OBJECT_NAME":"STARLINK-3732","OBJECT_ID":"2022-029AQ","TLE_LINE1":"1 52126U 22029AQ  22263.65070841 -.00000313  00000-0 -15744-5 0  9992","REF_FRAME":"TEME","SITE":"AFETR","APOAPSIS":"540.748","RCS_SIZE":"LARGE","TIME_SYSTEM":"UTC","MEAN_MOTION_DDOT":"0.0000000000000","EPOCH":"2022-09-20T15:37:01.206624","INCLINATION":"53.2176","FILE":"3578945","MEAN_MOTION":"15.08843375","ELEMENT_SET_NO":"999","BSTAR":"-0.00000157440000","TLE_LINE2":"2 52126  53.2176 352.5833 0001464  59.4138 300.6999 15.08843375 29793","RA_OF_ASC_NODE":"352.5833","OBJECT_TYPE":"PAYLOAD","NORAD_CAT_ID":"52126","CLASSIFICATION_TYPE":"U","DECAY_DATE":null,"MEAN_ANOMALY":"300.6999","EPHEMERIS_TYPE":"0","LAUNCH_DATE":"2022-03-19","REV_AT_EPOCH":"2979"},{"SITE":"AFETR","CENTER_NAME":"EARTH","OBJECT_NAME":"STARLINK-3715","ARG_OF_PERICENTER":"46.3884","OBJECT_ID":"2022-029AR","TLE_LINE1":"1 52127U 22029AR  22263.57343338  .00001338  00000-0  10216-3 0  9991","REF_FRAME":"TEME","SEMIMAJOR_AXIS":"6917.898","MEAN_ELEMENT_THEORY":"SGP4","PERIOD":"95.438","ECCENTRICITY":"0.00017430","COUNTRY_CODE":"US","MEAN_MOTION_DOT":"0.00001338","PERIAPSIS":"538.557","GP_ID":"213124907","LAUNCH_DATE":"2022-03-19","EPHEMERIS_TYPE":"0","REV_AT_EPOCH":"2978","BSTAR":"0.00010216000000","TLE_LINE2":"2 52127  53.2174 352.9275 0001743  46.3884 313.7252 15.08834242 29788","OBJECT_TYPE":"PAYLOAD","RA_OF_ASC_NODE":"352.9275","NORAD_CAT_ID":"52127","CLASSIFICATION_TYPE":"U","DECAY_DATE":null,"MEAN_ANOMALY":"313.7252","INCLINATION":"53.2174","FILE":"3578945","MEAN_MOTION":"15.08834242","ELEMENT_SET_NO":"999","RCS_SIZE":"LARGE","TIME_SYSTEM":"UTC","APOAPSIS":"540.969","MEAN_MOTION_DDOT":"0.0000000000000","EPOCH":"2022-09-20T13:45:44.644032"},{"GP_ID":"213123656","PERIAPSIS":"538.551","MEAN_MOTION_DOT":"0.00000175","COUNTRY_CODE":"US","ECCENTRICITY":"0.00017100","PERIOD":"95.437","SEMIMAJOR_AXIS":"6917.869","MEAN_ELEMENT_THEORY":"SGP4","REF_FRAME":"TEME","TLE_LINE1":"1 52129U 22029AT  22263.76478430  .00000175  00000-0  29104-4 0  9991","OBJECT_ID":"2022-029AT","OBJECT_NAME":"STARLINK-3661","ARG_OF_PERICENTER":"60.2511","CENTER_NAME":"EARTH","SITE":"AFETR","TIME_SYSTEM":"UTC","RCS_SIZE":"LARGE","APOAPSIS":"540.917","MEAN_MOTION_DDOT":"0.0000000000000","EPOCH":"2022-09-20T18:21:17.363520","ELEMENT_SET_NO":"999","MEAN_MOTION":"15.08843856","FILE":"3578945","INCLINATION":"53.2180","MEAN_ANOMALY":"299.8651","DECAY_DATE":null,"CLASSIFICATION_TYPE":"U","OBJECT_TYPE":"PAYLOAD","NORAD_CAT_ID":"52129","RA_OF_ASC_NODE":"352.0682","TLE_LINE2":"2 52129  53.2180 352.0682 0001710  60.2511 299.8651 15.08843856 29829","BSTAR":"0.00002910400000","REV_AT_EPOCH":"2982","EPHEMERIS_TYPE":"0","LAUNCH_DATE":"2022-03-19"},{"PERIOD":"95.438","SEMIMAJOR_AXIS":"6917.883","MEAN_ELEMENT_THEORY":"SGP4","MEAN_MOTION_DOT":"-0.00001819","COUNTRY_CODE":"US","ECCENTRICITY":"0.00015990","PERIAPSIS":"538.642","GP_ID":"213124406","SITE":"AFETR","OBJECT_ID":"2022-029AV","TLE_LINE1":"1 52131U 22029AV  22263.62863567 -.00001819  00000-0 -96238-4 0  9998","OBJECT_NAME":"STARLINK-3711","ARG_OF_PERICENTER":"62.6569","CENTER_NAME":"EARTH","REF_FRAME":"TEME","INCLINATION":"53.2206","ELEMENT_SET_NO":"999","MEAN_MOTION":"15.08839117","FILE":"3578945","TIME_SYSTEM":"UTC","RCS_SIZE":"LARGE","APOAPSIS":"540.854","MEAN_MOTION_DDOT":"0.0000000000000","EPOCH":"2022-09-20T15:05:14.121888","REV_AT_EPOCH":"2980","LAUNCH_DATE":"2022-03-19","EPHEMERIS_TYPE":"0","TLE_LINE2":"2 52131  53.2206 352.6825 0001599  62.6569 297.4586 15.08839117 29804","BSTAR":"-0.00009623800000","MEAN_ANOMALY":"297.4586","DECAY_DATE":null,"CLASSIFICATION_TYPE":"U","RA_OF_ASC_NODE":"352.6825","OBJECT_TYPE":"PAYLOAD","NORAD_CAT_ID":"52131"},{"INCLINATION":"53.2195","MEAN_MOTION":"15.08829554","FILE":"3578945","ELEMENT_SET_NO":"999","RCS_SIZE":"LARGE","MEAN_MOTION_DDOT":"0.0000000000000","APOAPSIS":"541.047","EPOCH":"2022-09-20T13:40:26.774112","TIME_SYSTEM":"UTC","REV_AT_EPOCH":"2979","LAUNCH_DATE":"2022-03-19","EPHEMERIS_TYPE":"0","BSTAR":"-0.00005810000000","TLE_LINE2":"2 52132  53.2195 352.9516 0001836  47.2989 312.8157 15.08829554 29799","CLASSIFICATION_TYPE":"U","OBJECT_TYPE":"PAYLOAD","RA_OF_ASC_NODE":"352.9516","NORAD_CAT_ID":"52132","MEAN_ANOMALY":"312.8157","DECAY_DATE":null,"PERIOD":"95.438","MEAN_ELEMENT_THEORY":"SGP4","SEMIMAJOR_AXIS":"6917.912","COUNTRY_CODE":"US","ECCENTRICITY":"0.00018360","MEAN_MOTION_DOT":"-0.00001212","PERIAPSIS":"538.507","GP_ID":"213125156","SITE":"AFETR","CENTER_NAME":"EARTH","TLE_LINE1":"1 52132U 22029AW  22263.56975433 -.00001212  00000-0 -58100-4 0  9991","OBJECT_ID":"2022-029AW","ARG_OF_PERICENTER":"47.2989","OBJECT_NAME":"STARLINK-3718","REF_FRAME":"TEME"}];
